start=new Date('2022-01-18T00:00:00.000Z').valueOf();
sats=[{"PERIOD":"95.592","ELEMENT_SET_NO":"999","INCLINATION":"53.0524","SITE":"AFETR","TLE_LINE2":"2 46168  53.0524 213.2145 0002381  75.8213 284.3040 15.06400739 78904","GP_ID":"194087108","REV_AT_EPOCH":"7890","TLE_LINE1":"1 46168U 20057BD  22017.91968639 -.00000614  00000-0 -22274-4 0  9996","MEAN_MOTION_DDOT":"0.0000000000000","MEAN_MOTION_DOT":"-0.00000614","MEAN_ELEMENT_THEORY":"SGP4","LAUNCH_DATE":"2020-08-18","EPHEMERIS_TYPE":"0","OBJECT_ID":"2020-057BD","OBJECT_NAME":"STARLINK-1627","COUNTRY_CODE":"US","APOAPSIS":"548.860","REF_FRAME":"TEME","MEAN_ANOMALY":"284.3040","RCS_SIZE":"LARGE","CLASSIFICATION_TYPE":"U","TIME_SYSTEM":"UTC","MEAN_MOTION":"15.06400739","FILE":"3276075","RA_OF_ASC_NODE":"213.2145","ARG_OF_PERICENTER":"75.8213","CENTER_NAME":"EARTH","ECCENTRICITY":"0.00023810","PERIAPSIS":"545.562","SEMIMAJOR_AXIS":"6925.346","OBJECT_TYPE":"PAYLOAD","BSTAR":"-0.00002227400000","EPOCH":"2022-01-17T22:04:20.904096","NORAD_CAT_ID":"46168","DECAY_DATE":null},{"NORAD_CAT_ID":"46169","EPOCH":"2022-01-17T21:15:33.465600","DECAY_DATE":null,"PERIAPSIS":"548.502","BSTAR":"-0.00016404000000","SEMIMAJOR_AXIS":"6927.883","OBJECT_TYPE":"PAYLOAD","ECCENTRICITY":"0.00017980","RA_OF_ASC_NODE":"263.3602","ARG_OF_PERICENTER":"72.8000","CENTER_NAME":"EARTH","TIME_SYSTEM":"UTC","FILE":"3276075","MEAN_MOTION":"15.05573517","APOAPSIS":"550.993","MEAN_ANOMALY":"287.3184","RCS_SIZE":"LARGE","CLASSIFICATION_TYPE":"U","REF_FRAME":"TEME","OBJECT_NAME":"STARLINK-1628","COUNTRY_CODE":"US","REV_AT_EPOCH":"7817","TLE_LINE1":"1 46169U 20057BE  22017.88580400 -.00002668  00000-0 -16404-3 0  9997","LAUNCH_DATE":"2020-08-18","MEAN_ELEMENT_THEORY":"SGP4","EPHEMERIS_TYPE":"0","OBJECT_ID":"2020-057BE","MEAN_MOTION_DDOT":"0.0000000000000","MEAN_MOTION_DOT":"-0.00002668","SITE":"AFETR","ELEMENT_SET_NO":"999","PERIOD":"95.645","INCLINATION":"52.9987","TLE_LINE2":"2 46169  52.9987 263.3602 0001798  72.8000 287.3184 15.05573517 78177","GP_ID":"194085358"},{"CENTER_NAME":"EARTH","ARG_OF_PERICENTER":"66.2494","RA_OF_ASC_NODE":"243.1903","ECCENTRICITY":"0.00022370","MEAN_MOTION":"15.06388524","FILE":"3276075","TIME_SYSTEM":"UTC","DECAY_DATE":null,"EPOCH":"2022-01-17T22:12:20.577024","NORAD_CAT_ID":"46171","OBJECT_TYPE":"PAYLOAD","SEMIMAJOR_AXIS":"6925.384","BSTAR":"-0.00019129000000","PERIAPSIS":"545.700","MEAN_MOTION_DOT":"-0.00003129","MEAN_MOTION_DDOT":"0.0000000000000","OBJECT_ID":"2020-057BG","LAUNCH_DATE":"2020-08-18","EPHEMERIS_TYPE":"0","MEAN_ELEMENT_THEORY":"SGP4","REV_AT_EPOCH":"7974","TLE_LINE1":"1 46171U 20057BG  22017.92523816 -.00003129  00000-0 -19129-3 0  9993","GP_ID":"194085608","TLE_LINE2":"2 46171  53.0538 243.1903 0002237  66.2494 293.8730 15.06388524 79743","INCLINATION":"53.0538","PERIOD":"95.593","ELEMENT_SET_NO":"999","SITE":"AFETR","REF_FRAME":"TEME","CLASSIFICATION_TYPE":"U","RCS_SIZE":"LARGE","MEAN_ANOMALY":"293.8730","APOAPSIS":"548.798","COUNTRY_CODE":"US","OBJECT_NAME":"STARLINK-1633"},{"CENTER_NAME":"EARTH","ARG_OF_PERICENTER":"64.6189","RA_OF_ASC_NODE":"243.4358","ECCENTRICITY":"0.00024490","TIME_SYSTEM":"UTC","MEAN_MOTION":"15.06386895","FILE":"3276075","NORAD_CAT_ID":"46172","EPOCH":"2022-01-17T20:58:02.110656","DECAY_DATE":null,"PERIAPSIS":"545.558","OBJECT_TYPE":"PAYLOAD","SEMIMAJOR_AXIS":"6925.389","BSTAR":"-0.00016770000000","TLE_LINE1":"1 46172U 20057BH  22017.87363554 -.00002778  00000-0 -16770-3 0  9997","REV_AT_EPOCH":"7973","MEAN_MOTION_DOT":"-0.00002778","MEAN_MOTION_DDOT":"0.0000000000000","OBJECT_ID":"2020-057BH","LAUNCH_DATE":"2020-08-18","MEAN_ELEMENT_THEORY":"SGP4","EPHEMERIS_TYPE":"0","INCLINATION":"53.0535","PERIOD":"95.593","ELEMENT_SET_NO":"999","SITE":"AFETR","GP_ID":"194086859","TLE_LINE2":"2 46172  53.0535 243.4358 0002449  64.6189 295.5053 15.06386895 79731","APOAPSIS":"548.950","REF_FRAME":"TEME","CLASSIFICATION_TYPE":"U","RCS_SIZE":"LARGE","MEAN_ANOMALY":"295.5053","OBJECT_NAME":"STARLINK-1635","COUNTRY_CODE":"US"},{"COUNTRY_CODE":"US","OBJECT_NAME":"STARLINK-1640","REF_FRAME":"TEME","RCS_SIZE":"LARGE","MEAN_ANOMALY":"290.5322","CLASSIFICATION_TYPE":"U","APOAPSIS":"548.627","TLE_LINE2":"2 46173  53.0542 263.2244 0001944  69.5876 290.5322 15.06378087 78209","GP_ID":"194086608","ELEMENT_SET_NO":"999","PERIOD":"95.594","INCLINATION":"53.0542","SITE":"AFETR","MEAN_MOTION_DDOT":"0.0000000000000","MEAN_MOTION_DOT":"-0.00006088","LAUNCH_DATE":"2020-08-18","MEAN_ELEMENT_THEORY":"SGP4","EPHEMERIS_TYPE":"0","OBJECT_ID":"2020-057BJ","REV_AT_EPOCH":"7820","TLE_LINE1":"1 46173U 20057BJ  22017.91970992 -.00006088  00000-0 -39035-3 0  9990","SEMIMAJOR_AXIS":"6925.416","OBJECT_TYPE":"PAYLOAD","BSTAR":"-0.00039035000000","PERIAPSIS":"545.934","DECAY_DATE":null,"EPOCH":"2022-01-17T22:04:22.937088","NORAD_CAT_ID":"46173","MEAN_MOTION":"15.06378087","FILE":"3276075","TIME_SYSTEM":"UTC","RA_OF_ASC_NODE":"263.2244","ARG_OF_PERICENTER":"69.5876","CENTER_NAME":"EARTH","ECCENTRICITY":"0.00019440"},{"MEAN_MOTION_DDOT":"0.0000000000000","MEAN_MOTION_DOT":"-0.00003587","MEAN_ELEMENT_THEORY":"SGP4","LAUNCH_DATE":"2020-08-18","EPHEMERIS_TYPE":"0","OBJECT_ID":"2020-057BK","REV_AT_EPOCH":"7820","TLE_LINE1":"1 46174U 20057BK  22017.92707764 -.00003587  00000-0 -22209-3 0  9993","TLE_LINE2":"2 46174  53.0543 263.1850 0001884  69.4388 290.6803 15.06386127 78202","GP_ID":"194085859","PERIOD":"95.593","ELEMENT_SET_NO":"999","INCLINATION":"53.0543","SITE":"AFETR","REF_FRAME":"TEME","RCS_SIZE":"LARGE","MEAN_ANOMALY":"290.6803","CLASSIFICATION_TYPE":"U","APOAPSIS":"548.561","COUNTRY_CODE":"US","OBJECT_NAME":"STARLINK-1641","ARG_OF_PERICENTER":"69.4388","RA_OF_ASC_NODE":"263.1850","CENTER_NAME":"EARTH","ECCENTRICITY":"0.00018840","MEAN_MOTION":"15.06386127","FILE":"3276075","TIME_SYSTEM":"UTC","DECAY_DATE":null,"NORAD_CAT_ID":"46174","EPOCH":"2022-01-17T22:14:59.508096","SEMIMAJOR_AXIS":"6925.391","OBJECT_TYPE":"PAYLOAD","BSTAR":"-0.00022209000000","PERIAPSIS":"545.951"},{"CENTER_NAME":"EARTH","ARG_OF_PERICENTER":"63.0814","RA_OF_ASC_NODE":"278.4371","ECCENTRICITY":"0.00019530","TIME_SYSTEM":"UTC","MEAN_MOTION":"15.06374176","FILE":"3276075","NORAD_CAT_ID":"46325","EPOCH":"2022-01-17T20:56:02.625504","DECAY_DATE":null,"PERIAPSIS":"545.940","OBJECT_TYPE":"PAYLOAD","SEMIMAJOR_AXIS":"6925.428","BSTAR":"-0.00037719000000","TLE_LINE1":"1 46325U 20062A   22017.87225261 -.00005892  00000-0 -37719-3 0  9991","REV_AT_EPOCH":"7768","MEAN_MOTION_DOT":"-0.00005892","MEAN_MOTION_DDOT":"0.0000000000000","OBJECT_ID":"2020-062A","MEAN_ELEMENT_THEORY":"SGP4","LAUNCH_DATE":"2020-09-03","EPHEMERIS_TYPE":"0","ELEMENT_SET_NO":"999","PERIOD":"95.594","INCLINATION":"53.0543","SITE":"AFETR","GP_ID":"194087873","TLE_LINE2":"2 46325  53.0543 278.4371 0001953  63.0814 297.0374 15.06374176 77684","APOAPSIS":"548.645","REF_FRAME":"TEME","CLASSIFICATION_TYPE":"U","RCS_SIZE":"LARGE","MEAN_ANOMALY":"297.0374","OBJECT_NAME":"STARLINK-1734","COUNTRY_CODE":"US"},{"TLE_LINE2":"2 46326  53.0537 323.5354 0001717  72.9523 287.1654 15.06380484 76448","GP_ID":"194088124","PERIOD":"95.593","ELEMENT_SET_NO":"999","INCLINATION":"53.0537","SITE":"AFETR","MEAN_MOTION_DDOT":"0.0000000000000","MEAN_MOTION_DOT":"-0.00004074","LAUNCH_DATE":"2020-09-03","EPHEMERIS_TYPE":"0","MEAN_ELEMENT_THEORY":"SGP4","OBJECT_ID":"2020-062B","REV_AT_EPOCH":"7644","TLE_LINE1":"1 46326U 20062B   22017.84688509 -.00004074  00000-0 -25491-3 0  9992","COUNTRY_CODE":"US","OBJECT_NAME":"STARLINK-1654","REF_FRAME":"TEME","MEAN_ANOMALY":"287.1654","RCS_SIZE":"LARGE","CLASSIFICATION_TYPE":"U","APOAPSIS":"548.462","MEAN_MOTION":"15.06380484","FILE":"3276075","TIME_SYSTEM":"UTC","ARG_OF_PERICENTER":"72.9523","RA_OF_ASC_NODE":"323.5354","CENTER_NAME":"EARTH","ECCENTRICITY":"0.00017170","SEMIMAJOR_AXIS":"6925.408","OBJECT_TYPE":"PAYLOAD","BSTAR":"-0.00025491000000","PERIAPSIS":"546.084","DECAY_DATE":null,"NORAD_CAT_ID":"46326","EPOCH":"2022-01-17T20:19:30.871776"},{"REF_FRAME":"TEME","MEAN_ANOMALY":"301.2864","RCS_SIZE":"LARGE","CLASSIFICATION_TYPE":"U","APOAPSIS":"548.480","COUNTRY_CODE":"US","OBJECT_NAME":"STARLINK-1673","MEAN_MOTION_DDOT":"0.0000000000000","MEAN_MOTION_DOT":"-0.00004151","MEAN_ELEMENT_THEORY":"SGP4","LAUNCH_DATE":"2020-09-03","EPHEMERIS_TYPE":"0","OBJECT_ID":"2020-062C","REV_AT_EPOCH":"7639","TLE_LINE1":"1 46327U 20062C   22017.56032203 -.00004151  00000-0 -26002-3 0  9991","TLE_LINE2":"2 46327  53.0559 324.8416 0001764  58.8298 301.2864 15.06385531 76393","GP_ID":"194056021","ELEMENT_SET_NO":"999","PERIOD":"95.593","INCLINATION":"53.0559","SITE":"AFETR","DECAY_DATE":null,"NORAD_CAT_ID":"46327","EPOCH":"2022-01-17T13:26:51.823392","SEMIMAJOR_AXIS":"6925.393","OBJECT_TYPE":"PAYLOAD","BSTAR":"-0.00026002000000","PERIAPSIS":"546.036","RA_OF_ASC_NODE":"324.8416","ARG_OF_PERICENTER":"58.8298","CENTER_NAME":"EARTH","ECCENTRICITY":"0.00017640","MEAN_MOTION":"15.06385531","FILE":"3275754","TIME_SYSTEM":"UTC"},{"REV_AT_EPOCH":"7671","TLE_LINE1":"1 46328U 20062D   22017.80544103 -.00005869  00000-0 -37567-3 0  9991","OBJECT_ID":"2020-062D","LAUNCH_DATE":"2020-09-03","EPHEMERIS_TYPE":"0","MEAN_ELEMENT_THEORY":"SGP4","MEAN_MOTION_DOT":"-0.00005869","MEAN_MOTION_DDOT":"0.0000000000000","SITE":"AFETR","PERIOD":"95.593","ELEMENT_SET_NO":"999","INCLINATION":"53.0545","GP_ID":"194087123","TLE_LINE2":"2 46328  53.0545 303.7323 0001570  58.7979 301.3164 15.06378794 76715","APOAPSIS":"548.366","CLASSIFICATION_TYPE":"U","RCS_SIZE":"LARGE","MEAN_ANOMALY":"301.3164","REF_FRAME":"TEME","OBJECT_NAME":"STARLINK-1686","COUNTRY_CODE":"US","ECCENTRICITY":"0.00015700","CENTER_NAME":"EARTH","ARG_OF_PERICENTER":"58.7979","RA_OF_ASC_NODE":"303.7323","TIME_SYSTEM":"UTC","FILE":"3276075","MEAN_MOTION":"15.06378794","EPOCH":"2022-01-17T19:19:50.104992","NORAD_CAT_ID":"46328","DECAY_DATE":null,"PERIAPSIS":"546.191","BSTAR":"-0.00037567000000","OBJECT_TYPE":"PAYLOAD","SEMIMAJOR_AXIS":"6925.414"}];
